{
  "type": "FeatureCollection",
  "features": [
    {
      "type": "Feature",
      "properties": {
        "norad_id": 66906,
        "name": "1998-067XS",
        "group": "last-30-days",
        "lat": -1.2488508175161734,
        "lon": 112.07031987378078,
        "alt_km": 416.38076923356675,
        "timestamp": "2025-12-18T15:47:09.961511+00:00",
        "meta_object_name": "1998-067XS",
        "meta_object_id": "1998-067XS",
        "meta_epoch": "2025-12-17T16:35:43.301760",
        "meta_mean_motion": 15.50834133,
        "meta_eccentricity": 0.0003138,
        "meta_inclination": 51.6309,
        "meta_ra_of_asc_node": 117.8563,
        "meta_arg_of_pericenter": 226.0893,
        "meta_mean_anomaly": 133.9837,
        "meta_ephemeris_type": 0,
        "meta_classification_type": "U",
        "meta_norad_cat_id": 66906,
        "meta_element_set_no": 999,
        "meta_rev_at_epoch": 238,
        "meta_bstar": 0.00042869394,
        "meta_mean_motion_dot": 0.00024822,
        "meta_mean_motion_ddot": 0,
        "tle_line1": "1 66906U 98067XS  25351.69147340  .00024822  00000+0  42869-3 0  9996",
        "tle_line2": "2 66906  51.6309 117.8563 0003138 226.0893 133.9837 15.50834133  2389"
      },
      "geometry": {
        "type": "Point",
        "coordinates": [
          112.07031987378078,
          -1.2488508175161734
        ]
      }
    },
    {
      "type": "Feature",
      "properties": {
        "norad_id": 66907,
        "name": "1998-067XT",
        "group": "last-30-days",
        "lat": 28.185312902278916,
        "lon": 138.10184566228574,
        "alt_km": 408.85795862033956,
        "timestamp": "2025-12-18T15:47:09.961521+00:00",
        "meta_object_name": "1998-067XT",
        "meta_object_id": "1998-067XT",
        "meta_epoch": "2025-12-17T19:32:19.947264",
        "meta_mean_motion": 15.52074588,
        "meta_eccentricity": 0.00039845,
        "meta_inclination": 51.6304,
        "meta_ra_of_asc_node": 117.1744,
        "meta_arg_of_pericenter": 257.0045,
        "meta_mean_anomaly": 103.05,
        "meta_ephemeris_type": 0,
        "meta_classification_type": "U",
        "meta_norad_cat_id": 66907,
        "meta_element_set_no": 999,
        "meta_rev_at_epoch": 240,
        "meta_bstar": 0.00089323104,
        "meta_mean_motion_dot": 0.00054815,
        "meta_mean_motion_ddot": 0,
        "tle_line1": "1 66907U 98067XT  25351.81411976  .00054815  00000+0  89323-3 0  9991",
        "tle_line2": "2 66907  51.6304 117.1744 0003984 257.0045 103.0500 15.52074588  2401"
      },
      "geometry": {
        "type": "Point",
        "coordinates": [
          138.10184566228574,
          28.185312902278916
        ]
      }
    },
    {
      "type": "Feature",
      "properties": {
        "norad_id": 66908,
        "name": "1998-067XU",
        "group": "last-30-days",
        "lat": 30.84631927253819,
        "lon": 141.21079188572796,
        "alt_km": 408.36704527060283,
        "timestamp": "2025-12-18T15:47:09.961534+00:00",
        "meta_object_name": "1998-067XU",
        "meta_object_id": "1998-067XU",
        "meta_epoch": "2025-12-17T14:53:17.519424",
        "meta_mean_motion": 15.52149323,
        "meta_eccentricity": 0.00041086,
        "meta_inclination": 51.6303,
        "meta_ra_of_asc_node": 118.1303,
        "meta_arg_of_pericenter": 254.9738,
        "meta_mean_anomaly": 105.0797,
        "meta_ephemeris_type": 0,
        "meta_classification_type": "U",
        "meta_norad_cat_id": 66908,
        "meta_element_set_no": 999,
        "meta_rev_at_epoch": 237,
        "meta_bstar": 0.00089135269,
        "meta_mean_motion_dot": 0.00054848,
        "meta_mean_motion_ddot": 0,
        "tle_line1": "1 66908U 98067XU  25351.62034166  .00054848  00000+0  89135-3 0  9990",
        "tle_line2": "2 66908  51.6303 118.1303 0004108 254.9738 105.0797 15.52149323  2373"
      },
      "geometry": {
        "type": "Point",
        "coordinates": [
          141.21079188572796,
          30.84631927253819
        ]
      }
    },
    {
      "type": "Feature",
      "properties": {
        "norad_id": 66909,
        "name": "SILVERSAT",
        "group": "last-30-days",
        "lat": 34.029068934391304,
        "lon": 145.30342501929243,
        "alt_km": 407.4306330433037,
        "timestamp": "2025-12-18T15:47:09.961544+00:00",
        "meta_object_name": "SILVERSAT",
        "meta_object_id": "1998-067XV",
        "meta_epoch": "2025-12-17T14:52:13.125504",
        "meta_mean_motion": 15.52286885,
        "meta_eccentricity": 0.00039934,
        "meta_inclination": 51.6308,
        "meta_ra_of_asc_node": 118.1251,
        "meta_arg_of_pericenter": 257.3923,
        "meta_mean_anomaly": 102.662,
        "meta_ephemeris_type": 0,
        "meta_classification_type": "U",
        "meta_norad_cat_id": 66909,
        "meta_element_set_no": 999,
        "meta_rev_at_epoch": 237,
        "meta_bstar": 0.00095195038,
        "meta_mean_motion_dot": 0.00058931,
        "meta_mean_motion_ddot": 0,
        "tle_line1": "1 66909U 98067XV  25351.61959636  .00058931  00000+0  95195-3 0  9998",
        "tle_line2": "2 66909  51.6308 118.1251 0003993 257.3923 102.6620 15.52286885  2378"
      },
      "geometry": {
        "type": "Point",
        "coordinates": [
          145.30342501929243,
          34.029068934391304
        ]
      }
    },
    {
      "type": "Feature",
      "properties": {
        "norad_id": 66910,
        "name": "1998-067XW",
        "group": "last-30-days",
        "lat": 40.22490762159847,
        "lon": 155.01753447801607,
        "alt_km": 407.2446182041649,
        "timestamp": "2025-12-18T15:47:09.961554+00:00",
        "meta_object_name": "1998-067XW",
        "meta_object_id": "1998-067XW",
        "meta_epoch": "2025-12-17T14:49:41.645568",
        "meta_mean_motion": 15.52327753,
        "meta_eccentricity": 0.00045296,
        "meta_inclination": 51.6302,
        "meta_ra_of_asc_node": 118.1137,
        "meta_arg_of_pericenter": 233.5237,
        "meta_mean_anomaly": 126.5336,
        "meta_ephemeris_type": 0,
        "meta_classification_type": "U",
        "meta_norad_cat_id": 66910,
        "meta_element_set_no": 999,
        "meta_rev_at_epoch": 237,
        "meta_bstar": 0.00083127757,
        "meta_mean_motion_dot": 0.00051432,
        "meta_mean_motion_ddot": 0,
        "tle_line1": "1 66910U 98067XW  25351.61784312  .00051432  00000+0  83128-3 0  9999",
        "tle_line2": "2 66910  51.6302 118.1137 0004529 233.5237 126.5336 15.52327753  2376"
      },
      "geometry": {
        "type": "Point",
        "coordinates": [
          155.01753447801607,
          40.22490762159847
        ]
      }
    },
    {
      "type": "Feature",
      "properties": {
        "norad_id": 66911,
        "name": "1998-067XX",
        "group": "last-30-days",
        "lat": 45.958121684566066,
        "lon": 167.92656399487993,
        "alt_km": 405.0018040323239,
        "timestamp": "2025-12-18T15:47:09.961563+00:00",
        "meta_object_name": "1998-067XX",
        "meta_object_id": "1998-067XX",
        "meta_epoch": "2025-12-17T14:47:13.814304",
        "meta_mean_motion": 15.52703134,
        "meta_eccentricity": 0.00042191,
        "meta_inclination": 51.6305,
        "meta_ra_of_asc_node": 118.1027,
        "meta_arg_of_pericenter": 237.6725,
        "meta_mean_anomaly": 122.3857,
        "meta_ephemeris_type": 0,
        "meta_classification_type": "U",
        "meta_norad_cat_id": 66911,
        "meta_element_set_no": 999,
        "meta_rev_at_epoch": 236,
        "meta_bstar": 0.00097424314,
        "meta_mean_motion_dot": 0.00061259,
        "meta_mean_motion_ddot": 0,
        "tle_line1": "1 66911U 98067XX  25351.61613211  .00061259  00000+0  97424-3 0  9991",
        "tle_line2": "2 66911  51.6305 118.1027 0004219 237.6725 122.3857 15.52703134  2363"
      },
      "geometry": {
        "type": "Point",
        "coordinates": [
          167.92656399487993,
          45.958121684566066
        ]
      }
    },
    {
      "type": "Feature",
      "properties": {
        "norad_id": 66912,
        "name": "1998-067XY",
        "group": "last-30-days",
        "lat": 18.03742632290388,
        "lon": 127.95865001142177,
        "alt_km": 411.6568849530995,
        "timestamp": "2025-12-18T15:47:09.961577+00:00",
        "meta_object_name": "1998-067XY",
        "meta_object_id": "1998-067XY",
        "meta_epoch": "2025-12-17T14:57:17.442720",
        "meta_mean_motion": 15.51610656,
        "meta_eccentricity": 0.0004152,
        "meta_inclination": 51.6301,
        "meta_ra_of_asc_node": 118.1487,
        "meta_arg_of_pericenter": 250.0151,
        "meta_mean_anomaly": 110.0391,
        "meta_ephemeris_type": 0,
        "meta_classification_type": "U",
        "meta_norad_cat_id": 66912,
        "meta_element_set_no": 999,
        "meta_rev_at_epoch": 236,
        "meta_bstar": 0.00073169198,
        "meta_mean_motion_dot": 0.00044013,
        "meta_mean_motion_ddot": 0,
        "tle_line1": "1 66912U 98067XY  25351.62311855  .00044013  00000+0  73169-3 0  9991",
        "tle_line2": "2 66912  51.6301 118.1487 0004152 250.0151 110.0391 15.51610656  2360"
      },
      "geometry": {
        "type": "Point",
        "coordinates": [
          127.95865001142177,
          18.03742632290388
        ]
      }
    }
  ]
}